[{"OBJECT_NAME":"XRISM","OBJECT_ID":"2023-137A","EPOCH":"2026-03-09T21:42:52.202304","MEAN_MOTION":15.11505182,"ECCENTRICITY":0.00080041,"INCLINATION":31.0015,"RA_OF_ASC_NODE":282.2731,"ARG_OF_PERICENTER":40.7626,"MEAN_ANOMALY":319.361,"EPHEMERIS_TYPE":0,"CLASSIFICATION_TYPE":"U","NORAD_CAT_ID":57800,"ELEMENT_SET_NO":999,"REV_AT_EPOCH":13782,"BSTAR":0.00036815988,"MEAN_MOTION_DOT":6.492e-5,"MEAN_MOTION_DDOT":0},{"OBJECT_NAME":"PIESAT-2 12","OBJECT_ID":"2024-241D","EPOCH":"2026-03-07T12:51:59.071104","MEAN_MOTION":15.13473962,"ECCENTRICITY":0.0001617,"INCLINATION":97.5188,"RA_OF_ASC_NODE":15.2831,"ARG_OF_PERICENTER":92.1579,"MEAN_ANOMALY":267.9837,"EPHEMERIS_TYPE":0,"CLASSIFICATION_TYPE":"U","NORAD_CAT_ID":62336,"ELEMENT_SET_NO":999,"REV_AT_EPOCH":6742,"BSTAR":0.00074906088,"MEAN_MOTION_DOT":0.00013349,"MEAN_MOTION_DDOT":0}]
